SL-3 R/B                
1 13403U 82079B   26077.45997421  .00005132  00000+0  20324-3 0  9994
2 13403  81.1491 182.7225 0025362 135.6960 224.6309 15.24925107379036
SL-14 R/B               
1 13553U 82092B   26077.11890876  .00000395  00000+0  41644-4 0  9999
2 13553  82.5677 133.5152 0018751 273.4594 119.8772 14.86674179330183
SL-3 R/B                
1 13819U 83010B   26077.49570598  .00012612  00000+0  25068-3 0  9998
2 13819  81.1067 351.4502 0017140  22.0984 338.0996 15.46660792359309
SL-3 R/B                
1 14208U 83075B   26077.46740808  .00008259  00000+0  21725-3 0  9990
2 14208  97.6135  82.3779 0021043 193.0654 167.0048 15.38622442331507
COSMOS 1536             
1 14699U 84013A   26077.32187109  .00005164  00000+0  21190-3 0  9999
2 14699  82.5413  99.2666 0012558 248.9361 111.0533 15.23938820273935
SL-14 R/B               
1 14820U 84027B   26077.44697756  .00000502  00000+0  54615-4 0  9997
2 14820  82.5397 236.7977 0016753 307.4941  52.4752 14.85985805248936
SL-8 R/B                
1 15483U 85006B   26076.94834749  .00000301  00000+0  10830-3 0  9997
2 15483  74.0436 245.9500 0018097 161.5600 313.5292 14.37789274155217
SL-12 R/B(2)            
1 15772U 85042D   26077.42725203  .00000014  00000+0  27577-4 0  9994
2 15772  71.1067  69.2668 0032985 113.7231 359.6598 14.21984888115632
SL-14 R/B               
1 15945U 85069B   26077.29447007  .00000507  00000+0  54443-4 0  9992
2 15945  82.5298  16.8434 0019257 159.3465 200.8535 14.86443028174110
SL-16 R/B               
1 16182U 85097B   26077.55066117  .00000252  00000+0  15023-3 0  9992
2 16182  71.0013 121.8995 0009637 248.8944 273.7290 14.16599495 88482
SL-14 R/B               
1 16496U 86006B   26077.47121149  .00000725  00000+0  74548-4 0  9992
2 16496  82.5237 251.4698 0075206 243.1269 116.2247 14.86827891150516
COSMOS 1743             
1 16719U 86034A   26077.37199019  .00032322  00000+0  41107-3 0  9993
2 16719  82.5280  64.7117 0002168 216.4499 143.6610 15.59207926181602
